{"type":"FeatureCollection","features":[{"type":"Feature","properties":{},"geometry":{"coordinates":[[-70.59786541162862,-33.46599741288289],[-70.59767292291995,-33.46599203471769],[-70.59767384391851,-33.46596821712735],[-70.59772541984066,-33.46596821712735]],"type":"LineString"}},{"type":"Feature","properties":{},"geometry":{"coordinates":[[-70.59766922633735,-33.465969733153734],[-70.59754949651288,-33.46597126977364],[-70.5975485755143,-33.46593131767311]],"type":"LineString"}},{"type":"Feature","properties":{},"geometry":{"coordinates":[[-70.59754949651288,-33.46597280639245],[-70.59755318050715,-33.46601736832805],[-70.59684124778441,-33.46604272259163],[-70.59683410741113,-33.46588325189848],[-70.59690594530227,-33.46587480048511]],"type":"LineString"}},{"type":"Feature","properties":{},"geometry":{"coordinates":[[-70.59683489670805,-33.4659205699908],[-70.59668845792963,-33.46592748477936]],"type":"LineString"}},{"type":"Feature","properties":{},"geometry":{"coordinates":[[-70.59674832283935,-33.465926716469504],[-70.59674648084177,-33.46590136224118],[-70.59648995540623,-33.46590827733365],[-70.59649271840192,-33.46595591254148],[-70.59639601354851,-33.46595898577964],[-70.59642943086975,-33.46668419145521]],"type":"LineString"}},{"type":"Feature","properties":{},"geometry":{"coordinates":[[-70.59640510213318,-33.46612158140577],[-70.59643780081798,-33.46611985675996]],"type":"LineString"}},{"type":"Feature","properties":{},"geometry":{"coordinates":[[-70.59640648670567,-33.46621896841019],[-70.59644701064454,-33.46621820010297]],"type":"LineString"}},{"type":"Feature","properties":{},"geometry":{"coordinates":[[-70.59684348507766,-33.466040971023446],[-70.59684624807338,-33.46609552093347],[-70.59671178227681,-33.46609475262512]],"type":"LineString"}},{"type":"Feature","properties":{},"geometry":{"coordinates":[[-70.59684624807338,-33.46609167939181],[-70.59687321922031,-33.466525304653764],[-70.59701229000972,-33.46652376804478],[-70.59700040785272,-33.46628711722851],[-70.59696448890669,-33.46628788553513],[-70.59695283138623,-33.46613352243698],[-70.59685152153953,-33.466135827360894]],"type":"LineString"}},{"type":"Feature","properties":{},"geometry":{"coordinates":[[-70.59786389591773,-33.46599993385293],[-70.59788323683517,-33.466271914898805],[-70.59700392386151,-33.46630111321815]],"type":"LineString"}},{"type":"Feature","properties":{},"geometry":{"coordinates":[[-70.59700798711529,-33.46642910367345],[-70.59709916597727,-33.46642833536809]],"type":"LineString"}},{"type":"Feature","properties":{},"geometry":{"coordinates":[[-70.59767477020907,-33.46627915660352],[-70.59768280735967,-33.46641995456009],[-70.59778133506572,-33.46641453773623]],"type":"LineString"}},{"type":"Feature","properties":{},"geometry":{"coordinates":[[-70.59768560282814,-33.46641999470549],[-70.59768852542666,-33.46645778459504],[-70.59749490356943,-33.46646570842828],[-70.59749928746612,-33.46657603042178],[-70.59751390045584,-33.46657724944849]],"type":"LineString"}},{"type":"Feature","properties":{},"geometry":{"coordinates":[[-70.59768852282318,-33.466457568765385],[-70.59768925347264,-33.46647402564776]],"type":"LineString"}}]}