{"type":"FeatureCollection","features":[{"type":"Feature","properties":{"M1":""},"geometry":{"coordinates":[[[-70.59806661043244,-33.46596634484558],[-70.59808164088655,-33.46627647615996],[-70.5978993950884,-33.46628435343293],[-70.59788153179818,-33.465967920305694],[-70.59806661043244,-33.46596634484558]]],"type":"Polygon"}},{"type":"Feature","properties":{},"geometry":{"coordinates":[[-70.59634666053255,-33.46562874926444],[-70.59643660008598,-33.466805777825975],[-70.59827162122578,-33.466715064615514],[-70.59818462763106,-33.46556526644187],[-70.59634688794154,-33.46562876654141]],"type":"LineString"}},{"type":"Feature","properties":{"Biblioteca":""},"geometry":{"coordinates":[[[-70.59812714123457,-33.465836351359876],[-70.59813563974295,-33.46594505820857],[-70.59806104172205,-33.46593954409652],[-70.59806198600074,-33.46596790238399],[-70.59772487848804,-33.465962388273454],[-70.59771449142175,-33.46584107774724],[-70.59812714123457,-33.465836351359876]]],"type":"Polygon"}},{"type":"Feature","properties":{"M7":""},"geometry":{"coordinates":[[[-70.59733661834984,-33.465859008867106],[-70.59734889397356,-33.465873975756544],[-70.59738288800853,-33.46588342852772],[-70.59738949795997,-33.46589288129711],[-70.59739610791094,-33.46590863591125],[-70.59739610791094,-33.46592754144425],[-70.59739233079611,-33.46594014513014],[-70.59738477656596,-33.46595038562434],[-70.59735928103983,-33.46595274881499],[-70.59734983825226,-33.46595038562434],[-70.59735078253097,-33.46595983838645],[-70.59688902983541,-33.465976366845936],[-70.59687297709687,-33.465976366845936],[-70.59685692435785,-33.46595352267268],[-70.59684842584899,-33.46592752757102],[-70.5968512586856,-33.46590310792365],[-70.59685881291529,-33.46589050423159],[-70.59688619699928,-33.46588814103929],[-70.59689563978637,-33.46588183919279],[-70.59689752834427,-33.46587081095955],[-70.59733661834984,-33.465859008867106]]],"type":"Polygon"}},{"type":"Feature","properties":{"Cancha":""},"geometry":{"coordinates":[[[-70.59692019115454,-33.46582906129811],[-70.59684748169056,-33.46583221222333],[-70.59685692447813,-33.46583615088044],[-70.59685692447813,-33.46584560365501],[-70.59685220308458,-33.46585190550416],[-70.59684464885444,-33.4658550564293],[-70.5966389325956,-33.465863552886134],[-70.5966285455298,-33.46586197742411],[-70.59662571269318,-33.465854100112765],[-70.59660021716707,-33.465854100112765],[-70.59658510870722,-33.465650865244996],[-70.59691466199024,-33.46563747378323],[-70.59692019115454,-33.46582906129811]]],"type":"Polygon"}},{"type":"Feature","properties":{"Reactor":""},"geometry":{"coordinates":[[[-70.5965841644285,-33.4656721340325],[-70.59658983014609,-33.46581707674932],[-70.59658038735851,-33.465818652212185],[-70.59658038735851,-33.46585567558231],[-70.59641702713506,-33.46586512835467],[-70.5964208042499,-33.46581943994358],[-70.59640947290492,-33.46582101540641],[-70.59640664006878,-33.46567922363429],[-70.5965841644285,-33.4656721340325]]],"type":"Polygon"}},{"type":"Feature","properties":{"Container":""},"geometry":{"coordinates":[[[-70.59668185696567,-33.465907464254826],[-70.59668468980227,-33.46596260538209],[-70.59657704202364,-33.46596890722249],[-70.59657704202364,-33.46590982744636],[-70.59668185696567,-33.465907464254826]]],"type":"Polygon"}},{"type":"Feature","properties":{"Hibernadero":""},"geometry":{"coordinates":[[[-70.59681783310464,-33.4659389734747],[-70.59681877738333,-33.46598229863307],[-70.59672057239325,-33.465979147713284],[-70.59671962811454,-33.4659389734747],[-70.59681783310464,-33.4659389734747]]],"type":"Polygon"}},{"type":"Feature","properties":{"M6":""},"geometry":{"coordinates":[[[-70.59670150516887,-33.465968924359984],[-70.59670433800503,-33.46606423964732],[-70.5967166136287,-33.46607684331411],[-70.59670622656243,-33.46608944697825],[-70.59671000367773,-33.46618397440496],[-70.59672605641629,-33.46619972896619],[-70.59671472507128,-33.46621469579676],[-70.59672322358014,-33.466321038990394],[-70.5967203905728,-33.46633327004169],[-70.59672794480248,-33.466477423920175],[-70.5965872472695,-33.466475060743846],[-70.5965891358269,-33.46648766435088],[-70.59647298954086,-33.46648451344871],[-70.59646826814682,-33.46640180224307],[-70.59646260247455,-33.46639313725538],[-70.5964673238681,-33.46638289681349],[-70.59646165819585,-33.466338784128695],[-70.59645976963841,-33.466263162330634],[-70.59644938257215,-33.46626158687589],[-70.59644799354697,-33.466093974400614],[-70.59644043931682,-33.466090035755954],[-70.59644043931682,-33.46607743209112],[-70.59645365921924,-33.46607191798745],[-70.59644893782567,-33.465974239518594],[-70.59670150516887,-33.465968924359984]]],"type":"Polygon"}},{"type":"Feature","properties":{"M8":""},"geometry":{"coordinates":[[[-70.59695219348119,-33.46615342877958],[-70.59697580044988,-33.46650239175973],[-70.59689081536222,-33.4665063303856],[-70.59687287406625,-33.4661550042363],[-70.59695219348119,-33.46615342877958]]],"type":"Polygon"}},{"type":"Feature","properties":{"M8":""},"geometry":{"coordinates":[[[-70.59683321435853,-33.46616130606374],[-70.59685587704851,-33.46650554266045],[-70.59675389494404,-33.4665063303856],[-70.59673689792633,-33.46616366924857],[-70.59683321435853,-33.46616130606374]]],"type":"Polygon"}},{"type":"Feature","properties":{"Gimnasio":""},"geometry":{"coordinates":[[[-70.59798132243895,-33.46649517231382],[-70.5979821224004,-33.46666534247227],[-70.59758854132228,-33.46667401778376],[-70.59757814182268,-33.466509186317055],[-70.59762693947329,-33.466507184314224],[-70.59764933839456,-33.46647448491588],[-70.59792772498895,-33.46646447489346],[-70.59792932491185,-33.46649583962644],[-70.59798132243895,-33.46649517231382]]],"type":"Polygon"}},{"type":"Feature","properties":{"Sesaes":""},"geometry":{"coordinates":[[[-70.59798808269724,-33.466424322618735],[-70.59775129410046,-33.46643433264583],[-70.59774729429243,-33.46635558707092],[-70.59792088593339,-33.466352917728194],[-70.5979192860105,-33.46637560713845],[-70.59798728273582,-33.466373605132524],[-70.59798808269724,-33.466424322618735]]],"type":"Polygon"}},{"type":"Feature","properties":{"Casino":""},"geometry":{"coordinates":[[[-70.59773500503486,-33.46605417355447],[-70.5978469996413,-33.466049502189136],[-70.59785339933364,-33.46618230235757],[-70.59774620449508,-33.4661849717055],[-70.59773500503486,-33.46605417355447]]],"type":"Polygon"}},{"type":"Feature","properties":{"M2":""},"geometry":{"coordinates":[[[-70.59772940530392,-33.466006125205126],[-70.59774780441798,-33.466300420929855],[-70.59763660977302,-33.46630242293878],[-70.59763546739023,-33.466276587777905],[-70.59759786920065,-33.46627792245042],[-70.59758746970107,-33.46604969314003],[-70.59761946816052,-33.46605102781742],[-70.59761786823762,-33.46600031011146],[-70.59772666299828,-33.46599964277238],[-70.59772940530392,-33.466006125205126]]],"type":"Polygon"}},{"type":"Feature","properties":{"M3":""},"geometry":{"coordinates":[[[-70.59743326693517,-33.46599724751457],[-70.59745210580247,-33.46630974471783],[-70.59732171208123,-33.46631174672654],[-70.59731133088157,-33.465999759612735],[-70.59743326693517,-33.46599724751457]]],"type":"Polygon"}},{"type":"Feature","properties":{"M5":""},"geometry":{"coordinates":[[[-70.5970697562734,-33.46666609345458],[-70.59648125167946,-33.46669260179374],[-70.59647743847493,-33.46654945666294],[-70.59705831665451,-33.466526129285846],[-70.5970697562734,-33.46666609345458]]],"type":"Polygon"}},{"type":"Feature","properties":{},"geometry":{"coordinates":[[[-70.59757495638057,-33.46588941977388],[-70.59758251061025,-33.465932744957044],[-70.5975182996556,-33.46593353268741],[-70.59751735537691,-33.46588705658152],[-70.59757495638057,-33.46588941977388]]],"type":"Polygon"}},{"type":"Feature","properties":{},"geometry":{"coordinates":[[[-70.59747542732589,-33.465877126680105],[-70.59730073575744,-33.46588264079688],[-70.59730073575744,-33.46581804684143],[-70.59747070593234,-33.465814108184276],[-70.59747542732589,-33.465877126680105]]],"type":"Polygon"}},{"type":"Feature","properties":{},"geometry":{"coordinates":[[[-70.59724407864454,-33.46586057045672],[-70.59690980396796,-33.465869235497685],[-70.59691074824667,-33.46584087717788],[-70.59724219008714,-33.46583142440204],[-70.59724407864454,-33.46586057045672]]],"type":"Polygon"}},{"type":"Feature","properties":{},"geometry":{"coordinates":[[[-70.59762853939617,-33.46650651697909],[-70.59757974174633,-33.46650785164807],[-70.59759174116807,-33.46669203577925],[-70.59751174502027,-33.46668936644693],[-70.59751174502027,-33.46647915625963],[-70.59762693947329,-33.466475152251256],[-70.59762853939617,-33.46650651697909]]],"type":"Polygon"}},{"type":"Feature","properties":{},"geometry":{"coordinates":[[[-70.59764972663622,-33.466421331063636],[-70.59745373607308,-33.46643000642229],[-70.59745453603452,-33.466362605550216],[-70.59764572682731,-33.46635659952885],[-70.59764972663622,-33.466421331063636]]],"type":"Polygon"}},{"type":"Feature","properties":{},"geometry":{"coordinates":[[[-70.59792571225601,-33.46635326289109],[-70.59775212061506,-33.46635059354831],[-70.59775212061506,-33.46629186798421],[-70.59808250470584,-33.46627852126015],[-70.59808410462874,-33.466304547370804],[-70.59792331237169,-33.466305214706196],[-70.59792571225601,-33.46635326289109]]],"type":"Polygon"}},{"type":"Feature","properties":{},"geometry":{"coordinates":[[[-70.59763142797846,-33.4662798242557],[-70.59764502732384,-33.466354565885474],[-70.59717248108075,-33.46637270684076],[-70.5971716811193,-33.466316650636834],[-70.5973172741081,-33.466310644612335],[-70.59732527372256,-33.46631531596486],[-70.59745646740528,-33.466312646620985],[-70.59745486748238,-33.466305305924095],[-70.59760095312092,-33.466299299870236],[-70.59760015315945,-33.46627994712069],[-70.59763142797846,-33.4662798242557]]],"type":"Polygon"}},{"type":"Feature","properties":{},"geometry":{"coordinates":[[[-70.59714337785803,-33.46640054198725],[-70.59715199231128,-33.46649845468665],[-70.59709707517311,-33.466497556405564],[-70.59708738391328,-33.46640144026936],[-70.59714337785803,-33.46640054198725]]],"type":"Polygon"}}]}